FENGYUN 3D              
1 43010U 17072A   26162.65032517 -.00000275  00000+0 -10809-3 0  9997
2 43010  99.0120 136.9722 0002649  70.9653 289.1809 14.19736941444208
NOAA 20 (JPSS-1)        
1 43013U 17073A   26162.57388135  .00000043  00000+0  41478-4 0  9990
2 43013  98.7772 102.0864 0000356  54.9671 305.1538 14.19510724443673
GOES 17                 
1 43226U 18022A   26162.53415064 -.00000166  00000+0  00000+0 0  9997
2 43226   0.9221  85.8109 0000481  24.5670 252.3064  1.00270838 30364
SENTINEL-3B             
1 43437U 18039A   26162.43904625  .00000076  00000+0  49397-4 0  9990
2 43437  98.6248 230.0537 0000809  80.8461 279.2811 14.26740095423304
FENGYUN 2H              
1 43491U 18050A   26162.63890620 -.00000115  00000+0  00000+0 0  9992
2 43491   3.0156  79.1427 0001782 130.6874 359.5967  1.00270471 29383
METOP-C                 
1 43689U 18087A   26162.50743961  .00000083  00000+0  57928-4 0  9991
2 43689  98.6645 222.2146 0001563 135.6630 224.4673 14.21510602394026
GEO-KOMPSAT-2A          
1 43823U 18100A   26162.57723742 -.00000327  00000+0  00000+0 0  9995
2 43823   0.0541 130.2462 0002051 320.4023 145.3295  1.00270826 27578
METEOR-M2 2             
1 44387U 19038A   26162.62497759 -.00000132  00000+0 -37347-4 0  9998
2 44387  98.9142 149.8280 0002221  56.7295 303.4096 14.24363955360505
ARKTIKA-M 1             
1 47719U 21016A   26160.51571443 -.00000149  00000+0  00000+0 0  9996
2 47719  63.2417  58.7595 7285674 269.8905  14.6803  2.00625436 38630
FENGYUN 3E              
1 49008U 21062A   26162.63480803  .00000200  00000+0  11509-3 0  9991
2 49008  98.7495 166.1045 0002776  94.6316 265.5177 14.19904184255791
GOES 18                 
1 51850U 22021A   26162.59604058  .00000113  00000+0  00000+0 0  9993
2 51850   0.0140  95.8701 0000458  58.4855 183.1543  1.00271589  6530
NOAA 21 (JPSS-2)        
1 54234U 22150A   26162.60698751  .00000020  00000+0  30359-4 0  9992
2 54234  98.7060 101.4898 0001355 166.6061 193.5151 14.19564486185750
METEOSAT-12 (MTG-I1)    
1 54743U 22170C   26162.33790873  .00000008  00000+0  00000+0 0  9998
2 54743   0.7315  21.9304 0003251  72.0656 286.9111  1.00271709 12915
TIANMU-1 03             
1 55973U 23039A   26162.61750140  .00013922  00000+0  27622-3 0  9995
2 55973  97.5228 336.3700 0004233 113.0908 247.0788 15.47127560179977
TIANMU-1 04             
1 55974U 23039B   26162.60912071  .00014401  00000+0  27984-3 0  9992
2 55974  97.5166 335.5145 0004798 110.2321 249.9445 15.47720615179989
TIANMU-1 05             
1 55975U 23039C   26162.59800128  .00013376  00000+0  26619-3 0  9994
2 55975  97.5209 335.9668 0003843 127.6018 232.5580 15.47052605179959
TIANMU-1 06             
1 55976U 23039D   26162.61215681  .00014402  00000+0  28080-3 0  9997
2 55976  97.5219 336.6114 0004180 124.7649 235.3995 15.47626887179981
FENGYUN 3G              
1 56232U 23055A   26160.12520916  .00022526  00000+0  34170-3 0  9998
2 56232  49.9935  27.5514 0005565 167.7824 192.3280 15.54457419178757
METEOR-M2 3             
1 57166U 23091A   26162.61801120 -.00000004  00000+0  16905-4 0  9995
2 57166  98.6091 217.7101 0004042 169.9561 190.1700 14.24046330153729
TIANMU-1 07             
1 57399U 23101A   26162.60558416  .00005836  00000+0  20509-3 0  9992
2 57399  97.2600 213.4021 0003787 133.1476 227.0082 15.29742846160794
TIANMU-1 08             
1 57400U 23101B   26162.63765438  .00005395  00000+0  18974-3 0  9995
2 57400  97.2589 213.2048 0005363 128.5528 231.6194 15.29747263160791
TIANMU-1 09             
1 57401U 23101C   26162.62117765  .00006127  00000+0  21497-3 0  9997
2 57401  97.2547 212.6074 0004227 139.4167 220.7389 15.29777068160797
TIANMU-1 10             
1 57402U 23101D   26162.58871295  .00005827  00000+0  20470-3 0  9994
2 57402  97.2626 213.6205 0005800 140.9725 219.1935 15.29747665160786
FENGYUN 3F              
1 57490U 23111A   26162.61885481  .00000025  00000+0  32223-4 0  9993
2 57490  98.6841 232.7311 0001592  97.3368 262.7990 14.19938146148076
ARKTIKA-M 2             
1 58584U 23198A   26160.78386103  .00000212  00000+0  00000+0 0  9997
2 58584  63.2205 155.1874 6900401 267.4353  18.7899  2.00606537 18179
TIANMU-1 11             
1 58645U 23205A   26162.61440155  .00005062  00000+0  19391-3 0  9991
2 58645  97.3450 184.2587 0009620  35.5388 324.6490 15.26937513136675
TIANMU-1 12             
1 58646U 23205B   26162.58463203  .00005330  00000+0  20436-3 0  9997
2 58646  97.3438 183.9862 0007437  22.7641 337.3926 15.26900864136650
TIANMU-1 13             
1 58647U 23205C   26162.61627808  .00005360  00000+0  20642-3 0  9997
2 58647  97.3466 184.2891 0006566   2.9450 357.1827 15.26755043136655
TIANMU-1 14             
1 58648U 23205D   26162.60164728  .00005226  00000+0  20105-3 0  9999
2 58648  97.3401 183.4609 0007554   6.4643 353.6692 15.26799218136657
TIANMU-1 19             
1 58660U 23208A   26162.60273340  .00007292  00000+0  24233-3 0  9998
2 58660  97.4494 278.8746 0004252 352.5881   7.5297 15.31489086136477
