OBJECT_NAME,OBJECT_ID,EPOCH,MEAN_MOTION,ECCENTRICITY,INCLINATION,RA_OF_ASC_NODE,ARG_OF_PERICENTER,MEAN_ANOMALY,EPHEMERIS_TYPE,CLASSIFICATION_TYPE,NORAD_CAT_ID,ELEMENT_SET_NO,REV_AT_EPOCH,BSTAR,MEAN_MOTION_DOT,MEAN_MOTION_DDOT
FENGYUN 3D,2017-072A,2026-06-11T15:36:28.094688,14.19736941,.00026492,99.0120,136.9722,70.9653,289.1809,0,U,43010,999,44420,-.10809052E-3,-.275E-5,0
NOAA 20 (JPSS-1),2017-073A,2026-06-11T13:46:23.348640,14.19510724,.00003564,98.7772,102.0864,54.9671,305.1538,0,U,43013,999,44367,.41478022E-4,.43E-6,0
GOES 17,2018-022A,2026-06-11T12:49:10.615296,1.00270838,.00004815,0.9221,85.8109,24.5670,252.3064,0,U,43226,999,3036,0,-.166E-5,0
SENTINEL-3B,2018-039A,2026-06-11T10:32:13.596000,14.26740095,.00008094,98.6248,230.0537,80.8461,279.2811,0,U,43437,999,42330,.49397441E-4,.76E-6,0
FENGYUN 2H,2018-050A,2026-06-11T15:20:01.495680,1.00270471,.0001782,3.0156,79.1427,130.6874,359.5967,0,U,43491,999,2938,0,-.115E-5,0
METOP-C,2018-087A,2026-06-11T12:10:42.782304,14.21510602,.00015636,98.6645,222.2146,135.6630,224.4673,0,U,43689,999,39402,.5792776E-4,.83E-6,0
GEO-KOMPSAT-2A,2018-100A,2026-06-11T13:51:13.313088,1.00270826,.00020517,0.0541,130.2462,320.4023,145.3295,0,U,43823,999,2757,0,-.327E-5,0
METEOR-M2 2,2019-038A,2026-06-11T14:59:58.063776,14.24363955,.00022214,98.9142,149.8280,56.7295,303.4096,0,U,44387,999,36050,-.3734743E-4,-.132E-5,0
ARKTIKA-M 1,2021-016A,2026-06-09T12:22:37.726752,2.00625436,.7285674,63.2417,58.7595,269.8905,14.6803,0,U,47719,999,3863,0,-.149E-5,0
FENGYUN 3E,2021-062A,2026-06-11T15:14:07.413792,14.19904184,.00027762,98.7495,166.1045,94.6316,265.5177,0,U,49008,999,25579,.11508792E-3,.2E-5,0
GOES 18,2022-021A,2026-06-11T14:18:17.906112,1.00271589,.00004583,0.0140,95.8701,58.4855,183.1543,0,U,51850,999,653,0,.113E-5,0
NOAA 21 (JPSS-2),2022-150A,2026-06-11T14:34:03.720864,14.19564486,.00013553,98.7060,101.4898,166.6061,193.5151,0,U,54234,999,18575,.30358675E-4,.2E-6,0
METEOSAT-12 (MTG-I1),2022-170C,2026-06-11T08:06:35.314272,1.00271709,.00032511,0.7315,21.9304,72.0656,286.9111,0,U,54743,999,1291,0,.8E-7,0
TIANMU-1 03,2023-039A,2026-06-11T14:49:12.120960,15.47127560,.00042339,97.5228,336.3700,113.0908,247.0788,0,U,55973,999,17997,.27621781E-3,.13922E-3,0
TIANMU-1 04,2023-039B,2026-06-11T14:37:08.029344,15.47720615,.00047985,97.5166,335.5145,110.2321,249.9445,0,U,55974,999,17998,.27983828E-3,.14401E-3,0
TIANMU-1 05,2023-039C,2026-06-11T14:21:07.310592,15.47052605,.00038433,97.5209,335.9668,127.6018,232.5580,0,U,55975,999,17995,.26618758E-3,.13376E-3,0
TIANMU-1 06,2023-039D,2026-06-11T14:41:30.348384,15.47626887,.00041803,97.5219,336.6114,124.7649,235.3995,0,U,55976,999,17998,.2808046E-3,.14402E-3,0
FENGYUN 3G,2023-055A,2026-06-09T03:00:18.071424,15.54457419,.0005565,49.9935,27.5514,167.7824,192.3280,0,U,56232,999,17875,.34170294E-3,.22526E-3,0
METEOR-M2 3,2023-091A,2026-06-11T14:49:56.167680,14.24046330,.00040422,98.6091,217.7101,169.9561,190.1700,0,U,57166,999,15372,.16904677E-4,-.4E-7,0
TIANMU-1 07,2023-101A,2026-06-11T14:32:02.471424,15.29742846,.00037879,97.2600,213.4021,133.1476,227.0082,0,U,57399,999,16079,.20508842E-3,.5836E-4,0
TIANMU-1 08,2023-101B,2026-06-11T15:18:13.338432,15.29747263,.00053632,97.2589,213.2048,128.5528,231.6194,0,U,57400,999,16079,.18974026E-3,.5395E-4,0
TIANMU-1 09,2023-101C,2026-06-11T14:54:29.748960,15.29777068,.0004227,97.2547,212.6074,139.4167,220.7389,0,U,57401,999,16079,.21496501E-3,.6127E-4,0
TIANMU-1 10,2023-101D,2026-06-11T14:07:44.798880,15.29747665,.00058003,97.2626,213.6205,140.9725,219.1935,0,U,57402,999,16078,.2047024E-3,.5827E-4,0
FENGYUN 3F,2023-111A,2026-06-11T14:51:09.055584,14.19938146,.00015927,98.6841,232.7311,97.3368,262.7990,0,U,57490,999,14807,.32222896E-4,.25E-6,0
ARKTIKA-M 2,2023-198A,2026-06-09T18:48:45.592992,2.00606537,.69004015,63.2205,155.1874,267.4353,18.7899,0,U,58584,999,1817,0,.212E-5,0
TIANMU-1 11,2023-205A,2026-06-11T14:44:44.293920,15.26937513,.00096204,97.3450,184.2587,35.5388,324.6490,0,U,58645,999,13667,.19391079E-3,.5062E-4,0
TIANMU-1 12,2023-205B,2026-06-11T14:01:52.207392,15.26900864,.00074376,97.3438,183.9862,22.7641,337.3926,0,U,58646,999,13665,.20436355E-3,.533E-4,0
TIANMU-1 13,2023-205C,2026-06-11T14:47:26.426112,15.26755043,.00065669,97.3466,184.2891,2.9450,357.1827,0,U,58647,999,13665,.20642108E-3,.536E-4,0
TIANMU-1 14,2023-205D,2026-06-11T14:26:22.324992,15.26799218,.00075545,97.3401,183.4609,6.4643,353.6692,0,U,58648,999,13665,.20104633E-3,.5226E-4,0
TIANMU-1 19,2023-208A,2026-06-11T14:27:56.165760,15.31489086,.00042523,97.4494,278.8746,352.5881,7.5297,0,U,58660,999,13647,.24233363E-3,.7292E-4,0
